ZIYUAN 3-02 (ZY 3-02)   
1 41556U 16033A   26196.93307935  .00002652  00000+0  12089-3 0  9994
2 41556  97.3827 272.1547 0014153 182.3554 177.7617 15.21438132562356
